EUTELSAT QUANTUM        
1 49056U 21069B   25276.93494921  .00000126  00000+0  00000+0 0  9992
2 49056   0.0263 287.0578 0002434 290.2104 179.9180  1.00270514 15354
EUTELSAT KONNECT VHTS   
1 53765U 22110A   25276.56920659  .00000017  00000+0  00000+0 0  9992
2 53765   0.0537 103.0130 0002726  69.1402  47.9863  1.00268849  4256
EUTELSAT HOTBIRD 13F    
1 54048U 22134A   25276.56483248  .00000087  00000+0  00000+0 0  9998
2 54048   0.0582 285.0418 0001999  78.2520 225.5817  1.00270924 10802
EUTELSAT HOTBIRD 13G    
1 54225U 22146A   25276.56483248  .00000088  00000+0  00000+0 0  9999
2 54225   0.0491 235.3415 0002059 298.7316  54.8067  1.00270478  4899
EUTELSAT 10B            
1 54259U 22157A   25276.56483248  .00000069  00000+0  00000+0 0  9997
2 54259   0.0558 100.1570 0001891  23.2913 102.4475  1.00269955 10447
EUTELSAT 36D            
1 59346U 24059A   25276.93260920  .00000156  00000+0  00000+0 0  9990
2 59346   0.0192 217.4087 0000327 241.1383 285.9371  1.00269104  5579
